[Satellite]
VERSION=1.1
NAME=GLOBALSTAR M090 [+]
NICKNAME=GLOBALSTAR M090 [+]
TLE1=1 38044U 11080E   15054.62190295 -.00000075  00000-0  16243-3 0  9990
TLE2=2 38044  51.9885 309.3777 0000487  65.6074  14.6121 12.62263005147981
